1 20253U 89077A   26164.92935234 -.00000366  00000-0  00000+0 0  9994
2 20253  12.4227 351.1849 0004522  53.4671 317.7701  1.00279153260532
1 20776U 90079A   26162.20198485  .00000132  00000-0  00000+0 0  9996
2 20776  13.3423 349.8525 0002401  96.2300 279.5546  1.00274124130837
1 22787U 93056A   26164.83378243  .00000125  00000-0  00000+0 0  9993
2 22787  11.8937   3.5752 0006020   7.7475 219.6242  1.00275128118515
1 23467U 95003A   26164.79604821 -.00000021  00000-0  00000+0 0  9998
2 23467   9.6988  13.2436 0003165  62.8852 284.7222  1.00272040114918
1 23967U 96042A   26164.46802645 -.00000288  00000-0  00000-0 0  9991
2 23967  11.1133  17.1054 0005987 105.8696 263.3522  1.00215262109452
1 25544U 98067A   26164.83523427  .00008738  00000-0  16534-3 0  9991
2 25544  51.6333 316.6832 0004955 182.4672 177.6293 15.49214103571238
1 25967U 99063A   26164.40092119 -.00000185  00000-0  00000-0 0  9996
2 25967   9.8446  27.2318 0001812  36.6711 319.2185  1.00271909 97308
1 27168U 02001A   26164.74139934  .00000099  00000-0  00000+0 0  9993
2 27168  11.1754  21.9281 0098959   8.3054 157.7242  1.00276159 32923
1 27607U 02058C   26164.64880848  .00000986  00000-0  13345-3 0  9994
2 27607  64.5509 139.9331 0075334 263.1310  96.1222 14.83040079263931
1 28117U 03057A   26164.71017095 -.00000103  00000-0  00000+0 0  9997
2 28117   8.9317  33.8465 0002643  51.8031 147.6319  1.00274498 82412
1 28899U 05044A   26164.57640691 -.00000254  00000-0  00000+0 0  9997
2 28899   5.0897  43.7030 0002811  36.3582 172.8276  1.00271325 75481
1 30794U 07007B   26164.86040277 -.00000265  00000-0  00000+0 0  9993
2 30794   5.2925  73.7819 0004063  15.1563 218.1902  1.00270373 70662
1 32294U 07056B   26164.83815997  .00000146  00000-0  00000+0 0  9997
2 32294   5.2441  73.5463 0004034   2.6002 152.8189  1.00273185 68169
1 35943U 09054B   26164.84569999  .00000034  00000-0  00000+0 0  9996
2 35943   0.0733  77.7528 0002752  11.1291 180.7398  1.00272414 61279
1 36582U 10021B   26164.83581994  .00000098  00000-0  00000+0 0  9990
2 36582   0.0373  58.4495 0002514  40.1749 117.5991  1.00271314 58927
1 38098U 12011A   26164.85646316 -.00000048  00000-0  00000+0 0  9993
2 38098   0.0018 356.6636 0001567  84.9491 200.9663  1.00272110  7151
1 39034U 12075A   26164.84361998  .00000110  00000-0  00000+0 0  9992
2 39034   0.0679 342.5921 0003445 108.9606 167.0934  1.00268905 49122
1 39215U 13038A   26164.83933735  .00000142  00000-0  00000+0 0  9991
2 39215   2.9985   1.4091 0001619  89.2047 138.5335  1.00273285 43987
1 40296U 14069A   26164.19667747  .00000321  00000-0  00000-0 0  9993
2 40296  63.4432 215.7190 6649770 270.5965  19.7216  2.00593507 85159
1 40931U 15052B   25151.18580175  .00001241  00000-0  78118-4 0  9996
2 40931   6.0006  24.0987 0012733 338.8432  21.1169 14.78805930523159
1 43678U 18084H   26164.83547012  .00002844  00000-0  23102-3 0  9997
2 43678  98.1178   0.8989 0012303 180.9539 179.1662 15.00438780415718
1 43700U 18090A   26164.83824662  .00000154  00000-0  00000+0 0  9999
2 43700   0.0008 356.4962 0001507 125.4240 107.7957  1.00268894 27643
1 43803U 18099AX  26164.70285229  .00017139  00000-0  53016-3 0  9998
2 43803  97.4136 227.5247 0004189 279.4170  80.6599 15.33551647413095
1 44453U 19046A   26163.73163419 -.00000059  00000-0  00000-0 0  9997
2 44453  63.1268  51.3454 7074766 274.8555  14.6881  2.00599954 50256
1 44909U 19096E   26164.72157117  .00000028  00000-0  61609-4 0  9997
2 44909  82.5218 342.0083 0218031 152.2450 209.0490 12.79748789301907
1 45254U 20015A   26163.48224441 -.00000110  00000-0  00000-0 0  9998
2 45254  65.5240 319.4618 6859174 277.9975  15.2185  2.00603468 46193
1 52145U 22030A   26163.98247039  .00000221  00000-0  00000-0 0  9999
2 52145  62.6764 141.2538 6782592 272.8566  17.6612  2.00614112 30945
1 57167U 23091B   26010.59363612  .08733485  25619-5  12458-2 0  9993
2 57167  97.4978  91.1570 0009532 282.8011  77.2220 16.34765267141469
1 59112U 24043Q   26164.35034011  .00039351  00000-0  51586-3 0  9996
2 59112  97.5519 314.5122 0006880 208.3384 151.7498 15.58447081127293
1 67291U 25313AV  26164.73934255  .00014197  00000-0  55037-3 0  9991
2 67291  97.3939 239.9852 0008561  15.9881 344.1626 15.26212808 25465
1 26635U 00080A   21013.46269075 0.00000000  00000-0  00000-0 0    09
2 26635   9.2857  29.8038 0014383 186.3086 173.6859  1.00273100    09
1 34810U 09020A   26118.58802400 0.00000000  00000-0  00000-0 0    05
2 34810   3.0809  80.0043 0003222 250.4250 109.5484  1.00270000    01
1 40614U 15022B   25359.93496764 0.00000000  00000-0  00000-0 0    00
2 40614   0.0160 108.2839 0003453 352.8976   7.0980  1.00270000    04
